COMMENT,ORIGINATOR,NORAD_CAT_ID,OBJECT_NAME,OBJECT_TYPE,CLASSIFICATION_TYPE,INTLDES,EPOCH,EPOCH_MICROSECONDS,MEAN_MOTION,ECCENTRICITY,INCLINATION,RA_OF_ASC_NODE,ARG_OF_PERICENTER,MEAN_ANOMALY,EPHEMERIS_TYPE,ELEMENT_SET_NO,REV_AT_EPOCH,BSTAR,MEAN_MOTION_DOT,MEAN_MOTION_DDOT,FILE,TLE_LINE0,TLE_LINE1,TLE_LINE2,OBJECT_ID,OBJECT_NUMBER,SEMIMAJOR_AXIS,PERIOD,APOGEE,PERIGEE
"GENERATED VIA SPACETRACK.ORG API","JSPOC","28381","SL-8 R/B","ROCKET BODY","U","04028B","2016-01-10 21:42:36","352224","13.78174468","0.0033029","82.9572","3.8249","56.5453","312.4619","0","999","57688","8.1144e-06","2.4e-07","0","1979034","0 SL-8 R/B","1 28381U 04028B   16010.90458741 +.00000024 +00000-0 +81144-5 0  9991","2 28381 082.9572 003.8249 0033029 056.5453 312.4619 13.78174468576887","2004-028B","28381","7348.505","104.486","994.642","946.099"
"GENERATED VIA SPACETRACK.ORG API","JSPOC","26620","SAC C","PAYLOAD","U","00075B","2016-01-10 21:42:45","832032","14.58504898","0.0001505","98.0634","326.2697","77.4403","339.4251","0","999","80496","5.7109e-05","2.21e-06","0","1979034","0 SAC C","1 26620U 00075B   16010.90469713 +.00000221 +00000-0 +57109-4 0  9996","2 26620 098.0634 326.2697 0001505 077.4403 339.4251 14.58504898804965","2000-075B","26620","7076.142","98.731","699.072","696.942"
"GENERATED VIA SPACETRACK.ORG API","JSPOC","40736","FLOCK 1E 9","PAYLOAD","U","98067GN","2016-01-10 21:42:58","131072","15.81635875","0.0007231","51.6493","117.2065","309.7031","151.5785","0","999","2808","0.001461","0.00309875","0","1978658","0 FLOCK 1E 9","1 40736U 98067GN  16010.90483948  .00309875  00000-0  14610-2 0  9999","2 40736  51.6493 117.2065 0007231 309.7031 151.5785 15.81635875 28087","1998-067GN","40736","6703.951","91.044","330.663","320.968"
"GENERATED VIA SPACETRACK.ORG API","JSPOC","11694","COSMOS 1159","PAYLOAD","U","80012D","2016-01-10 21:43:01","816032","12.50073761","0.0018998","74.0223","343.3072","240.3648","147.8445","0","999","63885","-7.5827e-05","-2.8e-07","0","1979034","0 COSMOS 1159","1 11694U 80012D   16010.90488213 -.00000028 +00000-0 -75827-4 0  9990","2 11694 074.0223 343.3072 0018998 240.3648 147.8445 12.50073761638850","1980-012D","11694","7842.323","115.193","1479.087","1449.289"
"GENERATED VIA SPACETRACK.ORG API","JSPOC","13917","SL-8 R/B","ROCKET BODY","U","83021B","2016-01-10 21:43:01","267392","13.76777661","0.0027196","82.9447","275.5736","275.378","132.3601","0","999","64732","4.3298e-05","5.8e-07","0","1979034","0 SL-8 R/B","1 13917U 83021B   16010.90487578 +.00000058 +00000-0 +43298-4 0  9994","2 13917 082.9447 275.5736 0027196 275.3780 132.3601 13.76777661647328","1983-021B","13917","7353.475","104.592","995.338","955.341"
"GENERATED VIA SPACETRACK.ORG API","JSPOC","25847","MOLNIYA 3-50","PAYLOAD","U","99036A","2016-01-10 21:43:05","852640","2.00670559","0.7396761","62.6105","327.8774","261.265","16.9469","0","999","12097","-0.00054323","-2.57e-06","0","1978747","0 MOLNIYA 3-50","1 25847U 99036A   16010.90492885 -.00000257  00000-0 -54323-3 0  9992","2 25847  62.6105 327.8774 7396761 261.2650  16.9469  2.00670559120975","1999-036A","25847","26550.909","717.594","39811.847","533.701"
"GENERATED VIA SPACETRACK.ORG API","JSPOC","3669","ISIS 1","PAYLOAD","U","69009A","2016-01-10 21:43:19","591968","11.29386456","0.1712102","88.4358","205.754","11.0757","352.3438","0","999","92956","2.8396e-05","5.1e-07","0","1979034","0 ISIS 1","1  3669U 69009A   16010.90508787 +.00000051 +00000-0 +28396-4 0  9998","2  3669 088.4358 205.7540 1712102 011.0757 352.3438 11.29386456929564","1969-009A","3669","8391.510","127.502","3450.087","576.663"
"GENERATED VIA SPACETRACK.ORG API","JSPOC","12445","ATLAS CENTAUR R/B","ROCKET BODY","U","80098B","2016-01-10 21:43:25","84416","6.88884499","0.4249925","23.6336","284.0911","84.8874","320.8759","0","999","79803","0.00073398","4.265e-05","0","1979034","0 ATLAS CENTAUR R/B","1 12445U 80098B   16010.90515144 +.00004265 +00000-0 +73398-3 0  9998","2 12445 023.6336 284.0911 4249925 084.8874 320.8759 06.88884499798035","1980-098B","12445","11667.314","209.033","10247.700","330.658"
"GENERATED VIA SPACETRACK.ORG API","JSPOC","33410","CZ-4B R/B","ROCKET BODY","U","08053C","2016-01-10 21:43:28","636320","14.97246403","0.0123275","97.6588","342.9256","146.559","214.3495","0","999","39223","3.1252e-05","3.55e-06","0","1979034","0 CZ-4B R/B","1 33410U 08053C   16010.90519255 +.00000355 +00000-0 +31252-4 0  9991","2 33410 097.6588 342.9256 0123275 146.5590 214.3495 14.97246403392234","2008-053C","33410","6953.545","96.176","661.130","489.691"
"GENERATED VIA SPACETRACK.ORG API","JSPOC","22","EXPLORER 7","PAYLOAD","U","59009A","2016-01-10 21:43:37","485408","14.930205","0.0145265","50.2839","132.0327","198.445","161.1197","0","999","22818","0.00021306","2.453e-05","0","1979034","0 EXPLORER 7","1    22U 59009A   16010.90529497 +.00002453 +00000-0 +21306-3 0  9999","2    22 050.2839 132.0327 0145265 198.4450 161.1197 14.93020500228186","1959-009A","22","6966.660","96.448","689.726","487.324"
"GENERATED VIA SPACETRACK.ORG API","JSPOC","27643","CHIPSAT","PAYLOAD","U","03002B","2016-01-10 21:43:45","71328","15.06577755","0.0018669","94.0593","113.0505","132.9533","227.3272","0","999","71060","0.00011253","1.655e-05","0","1979034","0 CHIPSAT","1 27643U 03002B   16010.90538277 +.00001655 +00000-0 +11253-3 0  9998","2 27643 094.0593 113.0505 0018669 132.9533 227.3272 15.06577755710602","2003-002B","27643","6924.803","95.580","559.596","533.740"
"GENERATED VIA SPACETRACK.ORG API","JSPOC","14172","COSMOS 1474","PAYLOAD","U","83069B","2016-01-10 21:43:46","717248","12.56619065","0.003285","74.0242","159.5437","31.4519","130.6739","0","999","49162","-8.7896e-05","-3.1e-07","0","1979034","0 COSMOS 1474","1 14172U 83069B   16010.90540182 -.00000031 +00000-0 -87896-4 0  9996","2 14172 074.0242 159.5437 0032850 031.4519 130.6739 12.56619065491623","1983-069B","14172","7815.067","114.593","1462.605","1411.260"
"GENERATED VIA SPACETRACK.ORG API","JSPOC","16908","EGS (AJISAI)","PAYLOAD","U","86061A","2016-01-10 21:43:47","623584","12.44482455","0.0011316","50.011","343.5533","202.296","194.8816","0","999","607","-3.0066e-05","-1.02e-06","0","1979034","0 EGS (AJISAI)","1 16908U 86061A   16010.90541231 -.00000102 +00000-0 -30066-4 0  9992","2 16908 050.0110 343.5533 0011316 202.2960 194.8816 12.44482455006071","1986-061A","16908","7865.795","115.710","1496.561","1478.759"
"GENERATED VIA SPACETRACK.ORG API","JSPOC","22038","COSMOS 2201","PAYLOAD","U","92042E","2016-01-10 21:43:50","359008","12.61687219","0.000744","82.5903","165.1261","305.0124","223.5218","0","999","8204","2.4989e-05","1.5e-07","0","1978760","0 COSMOS 2201","1 22038U 92042E   16010.90544397  .00000015  00000-0  24989-4 0  9993","2 22038  82.5903 165.1261 0007440 305.0124 223.5218 12.61687219 82046","1992-042E","22038","7794.125","114.132","1421.788","1410.191"
"GENERATED VIA SPACETRACK.ORG API","JSPOC","22038","COSMOS 2201","PAYLOAD","U","92042E","2016-01-10 21:43:50","359008","12.61687219","0.000744","82.5903","165.1261","305.0124","223.5218","0","999","8178","2.4989e-05","1.5e-07","0","1979034","0 COSMOS 2201","1 22038U 92042E   16010.90544397 +.00000015 +00000-0 +24989-4 0  9993","2 22038 082.5903 165.1261 0007440 305.0124 223.5218 12.61687219081786","1992-042E","22038","7794.125","114.132","1421.788","1410.191"
"GENERATED VIA SPACETRACK.ORG API","JSPOC","21398","SL-14 R/B","ROCKET BODY","U","91039B","2016-01-10 21:43:55","776288","14.79562661","0.0023075","82.5227","353.2578","97.3125","285.018","0","999","30549","1.4612e-05","1.33e-06","0","1979034","0 SL-14 R/B","1 21398U 91039B   16010.90550667 +.00000133 +00000-0 +14612-4 0  9996","2 21398 082.5227 353.2578 0023075 097.3125 285.0180 14.79562661305490","1991-039B","21398","7008.841","97.326","646.879","614.534"
"GENERATED VIA SPACETRACK.ORG API","JSPOC","731","GREB","PAYLOAD","U","64001E","2016-01-10 21:44:01","233312","13.957572","0.0016628","69.905","168.4614","247.2955","188.7688","0","999","64584","1.4655e-05","-3.4e-07","0","1979034","0 GREB","1   731U 64001E   16010.90556983 -.00000034 +00000-0 +14655-4 0  9998","2   731 069.9050 168.4614 0016628 247.2955 188.7688 13.95757200645841","1964-001E","731","7286.661","103.169","920.642","896.410"
"GENERATED VIA SPACETRACK.ORG API","JSPOC","22195","LAGEOS 2","PAYLOAD","U","92070B","2016-01-10 21:44:03","590304","6.47294349","0.0137904","52.6429","154.7839","321.1125","3.7842","0","999","54895","0","-9e-08","0","1979034","0 LAGEOS 2","1 22195U 92070B   16010.90559711 -.00000009 +00000-0 +00000-0 0  9992","2 22195 052.6429 154.7839 0137904 321.1125 003.7842 06.47294349548958","1992-070B","22195","12161.877","222.464","5951.459","5616.025"
"GENERATED VIA SPACETRACK.ORG API","JSPOC","41033","FREGAT R/B","ROCKET BODY","U","15066B","2016-01-10 21:44:05","263872","2.01567199","0.6994386","63.8251","97.9224","269.7568","17.0763","0","999","109","0","1.396e-05","0","1978966","0 FREGAT R/B","1 41033U 15066B   16010.90561648  .00001396  00000-0  00000+0 0  9994","2 41033  63.8251  97.9224 6994386 269.7568  17.0763  2.01567199  1093","2015-066B","41033","26472.112","714.401","38609.594","1578.360"
"GENERATED VIA SPACETRACK.ORG API","JSPOC","11042","COSMOS 1034","PAYLOAD","U","78091A","2016-01-10 21:44:07","545696","12.53146034","0.0037035","74.0347","251.6214","41.1509","94.6109","0","999","70490","0.00016722","1.1e-07","0","1979034","0 COSMOS 1034","1 11042U 78091A   16010.90564289 +.00000011 +00000-0 +16722-3 0  9997","2 11042 074.0347 251.6214 0037035 041.1509 094.6109 12.53146034704902","1978-091A","11042","7829.500","114.910","1480.361","1422.368"
